{
  "type": "FeatureCollection",
  "features": [
    {
      "type": "Feature",
      "properties": {
        "norad_id": 34765,
        "name": "IRIDIUM 33 DEB",
        "group": "iridium-33-debris",
        "lat": 40.70478627627404,
        "lon": 34.41618212155032,
        "alt_km": 764.2593094067561,
        "timestamp": "2025-12-16T05:49:09.598768+00:00",
        "meta_object_name": "IRIDIUM 33 DEB",
        "meta_object_id": "1997-051LJ",
        "meta_epoch": "2025-12-15T13:40:10.093728",
        "meta_mean_motion": 14.40472042,
        "meta_eccentricity": 0.00157365,
        "meta_inclination": 86.3391,
        "meta_ra_of_asc_node": 31.5475,
        "meta_arg_of_pericenter": 201.7387,
        "meta_mean_anomaly": 311.9184,
        "meta_ephemeris_type": 0,
        "meta_classification_type": "U",
        "meta_norad_cat_id": 34765,
        "meta_element_set_no": 999,
        "meta_rev_at_epoch": 87654,
        "meta_bstar": 0.00038671785,
        "meta_mean_motion_dot": 1.25e-05,
        "meta_mean_motion_ddot": 0,
        "tle_line1": "1 34765U 97051LJ  25349.56956127  .00001250  00000+0  38672-3 0  9997",
        "tle_line2": "2 34765  86.3391  31.5475 0015736 201.7387 311.9184 14.40472042876547"
      },
      "geometry": {
        "type": "Point",
        "coordinates": [
          34.41618212155032,
          40.70478627627404
        ]
      }
    },
    {
      "type": "Feature",
      "properties": {
        "norad_id": 34833,
        "name": "IRIDIUM 33 DEB",
        "group": "iridium-33-debris",
        "lat": -63.38095914774945,
        "lon": 42.255388730313875,
        "alt_km": 738.6361430512852,
        "timestamp": "2025-12-16T05:49:09.598778+00:00",
        "meta_object_name": "IRIDIUM 33 DEB",
        "meta_object_id": "1997-051MH",
        "meta_epoch": "2025-12-15T10:20:22.808256",
        "meta_mean_motion": 14.52396502,
        "meta_eccentricity": 0.00217393,
        "meta_inclination": 86.3936,
        "meta_ra_of_asc_node": 49.8343,
        "meta_arg_of_pericenter": 90.4638,
        "meta_mean_anomaly": 284.9984,
        "meta_ephemeris_type": 0,
        "meta_classification_type": "U",
        "meta_norad_cat_id": 34833,
        "meta_element_set_no": 999,
        "meta_rev_at_epoch": 87754,
        "meta_bstar": 0.00054738094,
        "meta_mean_motion_dot": 2.256e-05,
        "meta_mean_motion_ddot": 0,
        "tle_line1": "1 34833U 97051MH  25349.43081954  .00002256  00000+0  54738-3 0  9994",
        "tle_line2": "2 34833  86.3936  49.8343 0021739  90.4638 284.9984 14.52396502877543"
      },
      "geometry": {
        "type": "Point",
        "coordinates": [
          42.255388730313875,
          -63.38095914774945
        ]
      }
    },
    {
      "type": "Feature",
      "properties": {
        "norad_id": 34870,
        "name": "IRIDIUM 33 DEB",
        "group": "iridium-33-debris",
        "lat": -32.01016571436129,
        "lon": 134.79175684489502,
        "alt_km": 637.9117993562832,
        "timestamp": "2025-12-16T05:49:09.598789+00:00",
        "meta_object_name": "IRIDIUM 33 DEB",
        "meta_object_id": "1997-051MQ",
        "meta_epoch": "2025-12-15T20:52:07.322880",
        "meta_mean_motion": 14.7649675,
        "meta_eccentricity": 0.00166647,
        "meta_inclination": 86.3098,
        "meta_ra_of_asc_node": 312.6504,
        "meta_arg_of_pericenter": 171.0618,
        "meta_mean_anomaly": 219.7465,
        "meta_ephemeris_type": 0,
        "meta_classification_type": "U",
        "meta_norad_cat_id": 34870,
        "meta_element_set_no": 999,
        "meta_rev_at_epoch": 88957,
        "meta_bstar": 0.0009319058,
        "meta_mean_motion_dot": 6.529e-05,
        "meta_mean_motion_ddot": 0,
        "tle_line1": "1 34870U 97051MQ  25349.86952920  .00006529  00000+0  93191-3 0  9995",
        "tle_line2": "2 34870  86.3098 312.6504 0016664 171.0618 219.7465 14.76496750889576"
      },
      "geometry": {
        "type": "Point",
        "coordinates": [
          134.79175684489502,
          -32.01016571436129
        ]
      }
    },
    {
      "type": "Feature",
      "properties": {
        "norad_id": 34896,
        "name": "IRIDIUM 33 DEB",
        "group": "iridium-33-debris",
        "lat": -74.45810408015237,
        "lon": -48.23512523560574,
        "alt_km": 678.2173288900913,
        "timestamp": "2025-12-16T05:49:09.598799+00:00",
        "meta_object_name": "IRIDIUM 33 DEB",
        "meta_object_id": "1997-051MY",
        "meta_epoch": "2025-12-15T05:52:43.272192",
        "meta_mean_motion": 14.66306707,
        "meta_eccentricity": 0.00245889,
        "meta_inclination": 86.3284,
        "meta_ra_of_asc_node": 325.5614,
        "meta_arg_of_pericenter": 205.2361,
        "meta_mean_anomaly": 217.3935,
        "meta_ephemeris_type": 0,
        "meta_classification_type": "U",
        "meta_norad_cat_id": 34896,
        "meta_element_set_no": 999,
        "meta_rev_at_epoch": 87656,
        "meta_bstar": 0.00064086297,
        "meta_mean_motion_dot": 3.573e-05,
        "meta_mean_motion_ddot": 0,
        "tle_line1": "1 34896U 97051MY  25349.24494528  .00003573  00000+0  64086-3 0  9997",
        "tle_line2": "2 34896  86.3284 325.5614 0024588 205.2361 217.3935 14.66306707876567"
      },
      "geometry": {
        "type": "Point",
        "coordinates": [
          -48.23512523560574,
          -74.45810408015237
        ]
      }
    },
    {
      "type": "Feature",
      "properties": {
        "norad_id": 34926,
        "name": "IRIDIUM 33 DEB",
        "group": "iridium-33-debris",
        "lat": -42.287409695372915,
        "lon": -169.82319697697002,
        "alt_km": 689.3607185464298,
        "timestamp": "2025-12-16T05:49:09.598809+00:00",
        "meta_object_name": "IRIDIUM 33 DEB",
        "meta_object_id": "1997-051NF",
        "meta_epoch": "2025-12-15T19:43:01.131168",
        "meta_mean_motion": 14.54563676,
        "meta_eccentricity": 0.00748103,
        "meta_inclination": 86.1336,
        "meta_ra_of_asc_node": 6.8454,
        "meta_arg_of_pericenter": 282.1125,
        "meta_mean_anomaly": 258.1546,
        "meta_ephemeris_type": 0,
        "meta_classification_type": "U",
        "meta_norad_cat_id": 34926,
        "meta_element_set_no": 999,
        "meta_rev_at_epoch": 86501,
        "meta_bstar": 0.0034895207,
        "meta_mean_motion_dot": 0.00015491,
        "meta_mean_motion_ddot": 0,
        "tle_line1": "1 34926U 97051NF  25349.82154087  .00015491  00000+0  34895-2 0  9994",
        "tle_line2": "2 34926  86.1336   6.8454 0074810 282.1125 258.1546 14.54563676865019"
      },
      "geometry": {
        "type": "Point",
        "coordinates": [
          -169.82319697697002,
          -42.287409695372915
        ]
      }
    },
    {
      "type": "Feature",
      "properties": {
        "norad_id": 34985,
        "name": "IRIDIUM 33 DEB",
        "group": "iridium-33-debris",
        "lat": -10.739415746060223,
        "lon": -123.92460548895824,
        "alt_km": 741.8147348397533,
        "timestamp": "2025-12-16T05:49:09.598820+00:00",
        "meta_object_name": "IRIDIUM 33 DEB",
        "meta_object_id": "1997-051NR",
        "meta_epoch": "2025-12-15T23:04:55.240608",
        "meta_mean_motion": 14.42024534,
        "meta_eccentricity": 0.00210591,
        "meta_inclination": 86.3698,
        "meta_ra_of_asc_node": 55.5052,
        "meta_arg_of_pericenter": 208.7794,
        "meta_mean_anomaly": 325.5524,
        "meta_ephemeris_type": 0,
        "meta_classification_type": "U",
        "meta_norad_cat_id": 34985,
        "meta_element_set_no": 999,
        "meta_rev_at_epoch": 87221,
        "meta_bstar": 0.00049841253,
        "meta_mean_motion_dot": 1.659e-05,
        "meta_mean_motion_ddot": 0,
        "tle_line1": "1 34985U 97051NR  25349.96175047  .00001659  00000+0  49841-3 0  9992",
        "tle_line2": "2 34985  86.3698  55.5052 0021059 208.7794 325.5524 14.42024534872212"
      },
      "geometry": {
        "type": "Point",
        "coordinates": [
          -123.92460548895824,
          -10.739415746060223
        ]
      }
    },
    {
      "type": "Feature",
      "properties": {
        "norad_id": 35051,
        "name": "IRIDIUM 33 DEB",
        "group": "iridium-33-debris",
        "lat": -14.087416054581468,
        "lon": -171.7397320715655,
        "alt_km": 741.3566314009213,
        "timestamp": "2025-12-16T05:49:09.598830+00:00",
        "meta_object_name": "IRIDIUM 33 DEB",
        "meta_object_id": "1997-051NX",
        "meta_epoch": "2025-12-11T08:47:57.045408",
        "meta_mean_motion": 14.47588957,
        "meta_eccentricity": 0.00106566,
        "meta_inclination": 86.3243,
        "meta_ra_of_asc_node": 9.4603,
        "meta_arg_of_pericenter": 94.8899,
        "meta_mean_anomaly": 265.3522,
        "meta_ephemeris_type": 0,
        "meta_classification_type": "U",
        "meta_norad_cat_id": 35051,
        "meta_element_set_no": 999,
        "meta_rev_at_epoch": 86976,
        "meta_bstar": 0.001042299,
        "meta_mean_motion_dot": 3.858e-05,
        "meta_mean_motion_ddot": 0,
        "tle_line1": "1 35051U 97051NX  25345.36663247  .00003858  00000+0  10423-2 0  9997",
        "tle_line2": "2 35051  86.3243   9.4603 0010656  94.8899 265.3522 14.47588957869768"
      },
      "geometry": {
        "type": "Point",
        "coordinates": [
          -171.7397320715655,
          -14.087416054581468
        ]
      }
    }
  ]
}